{
    "links": {
        "self": "http://www.neowsapp.com/rest/v1/neo/3795125?api_key=iIulBulltgU6a56xZRHN4H3l9WmuAYTsLGpBGhQ2"
    },
    "id": "3795125",
    "neo_reference_id": "3795125",
    "name": "(2017 YD7)",
    "designation": "2017 YD7",
    "nasa_jpl_url": "http://ssd.jpl.nasa.gov/sbdb.cgi?sstr=3795125",
    "absolute_magnitude_h": 27.3,
    "estimated_diameter": {
        "kilometers": {
            "estimated_diameter_min": 0.0092162655,
            "estimated_diameter_max": 0.0206081961
        },
        "meters": {
            "estimated_diameter_min": 9.216265485,
            "estimated_diameter_max": 20.6081961232
        },
        "miles": {
            "estimated_diameter_min": 0.0057267201,
            "estimated_diameter_max": 0.0128053354
        },
        "feet": {
            "estimated_diameter_min": 30.2370924539,
            "estimated_diameter_max": 67.6121941689
        }
    },
    "is_potentially_hazardous_asteroid": false,
    "close_approach_data": [
        {
            "close_approach_date": "2007-09-22",
            "close_approach_date_full": "2007-Sep-22 10:55",
            "epoch_date_close_approach": 1190458500000,
            "relative_velocity": {
                "kilometers_per_second": "11.5218084312",
                "kilometers_per_hour": "41478.5103523326",
                "miles_per_hour": "25773.1332797591"
            },
            "miss_distance": {
                "astronomical": "0.0907386",
                "lunar": "35.2973154",
                "kilometers": "13574301.286782",
                "miles": "8434679.6983116"
            },
            "orbiting_body": "Mars"
        },
        {
            "close_approach_date": "2007-12-12",
            "close_approach_date_full": "2007-Dec-12 20:04",
            "epoch_date_close_approach": 1197489840000,
            "relative_velocity": {
                "kilometers_per_second": "22.5111579958",
                "kilometers_per_hour": "81040.1687847871",
                "miles_per_hour": "50355.2093207473"
            },
            "miss_distance": {
                "astronomical": "0.4024269761",
                "lunar": "156.5440937029",
                "kilometers": "60202218.455100907",
                "miles": "37407923.9195182366"
            },
            "orbiting_body": "Earth"
        },
        {
            "close_approach_date": "2015-06-07",
            "close_approach_date_full": "2015-Jun-07 01:31",
            "epoch_date_close_approach": 1433640660000,
            "relative_velocity": {
                "kilometers_per_second": "11.5083042669",
                "kilometers_per_hour": "41429.8953607446",
                "miles_per_hour": "25742.9258145693"
            },
            "miss_distance": {
                "astronomical": "0.0451723046",
                "lunar": "17.5720264894",
                "kilometers": "6757680.551151202",
                "miles": "4199027.9829705076"
            },
            "orbiting_body": "Earth"
        },
        {
            "close_approach_date": "2018-01-03",
            "close_approach_date_full": "2018-Jan-03 00:40",
            "epoch_date_close_approach": 1514940000000,
            "relative_velocity": {
                "kilometers_per_second": "10.5213123006",
                "kilometers_per_hour": "37876.7242822997",
                "miles_per_hour": "23535.1234852989"
            },
            "miss_distance": {
                "astronomical": "0.0121573775",
                "lunar": "4.7292198475",
                "kilometers": "1818717.778785925",
                "miles": "1130098.824358765"
            },
            "orbiting_body": "Earth"
        },
        {
            "close_approach_date": "2025-06-28",
            "close_approach_date_full": "2025-Jun-28 04:16",
            "epoch_date_close_approach": 1751084160000,
            "relative_velocity": {
                "kilometers_per_second": "23.3069376189",
                "kilometers_per_hour": "83904.9754278733",
                "miles_per_hour": "52135.2887596138"
            },
            "miss_distance": {
                "astronomical": "0.4424584292",
                "lunar": "172.1163289588",
                "kilometers": "66190838.571865804",
                "miles": "41129079.9077799352"
            },
            "orbiting_body": "Earth"
        }
    ],
    "orbital_data": {
        "orbit_id": "2",
        "orbit_determination_date": "2018-01-02 06:20:30",
        "first_observation_date": "2017-12-28",
        "last_observation_date": "2018-01-01",
        "data_arc_in_days": 4,
        "observations_used": 27,
        "orbit_uncertainty": "8",
        "minimum_orbit_intersection": ".012154",
        "jupiter_tisserand_invariant": "4.997",
        "epoch_osculation": "2458116.5",
        "eccentricity": ".373880599982143",
        "semi_major_axis": "1.274772792166636",
        "inclination": "4.300915317159427",
        "ascending_node_longitude": "93.2012322075272",
        "orbital_period": "525.7116548864105",
        "perihelion_distance": ".7981599757904624",
        "perihelion_argument": "81.7450321730951",
        "aphelion_distance": "1.75138560854281",
        "perihelion_time": "2458173.613837633617",
        "mean_anomaly": "320.8892415509702",
        "mean_motion": ".6847860355650371",
        "equinox": "J2000",
        "orbit_class": {
            "orbit_class_type": "APO",
            "orbit_class_description": "Near-Earth asteroid orbits which cross the Earth’s orbit similar to that of 1862 Apollo",
            "orbit_class_range": "a (semi-major axis) > 1.0 AU; q (perihelion) < 1.017 AU"
        }
    },
    "is_sentry_object": false
}